0 TEVEL 5
1 50998U 22002Q   23105.99583539  .00024492  00000-0  10317-2 0  9994
2 50998  97.4385 173.7964 0010870  92.0999  30.6739 15.23286498 69315
0 XW-2C
1 40906U 15049H   23105.92667162  .00016289  00000-0  65686-3 0  9998
2 40906  97.4961 112.9201 0013208  30.6039  30.0810 15.24818889418906
0 TEVEL 1
1 51013U 22002AF  23105.89524808  .00023498  00000-0  10131-2 0  9995
2 51013  97.4380 173.3320 0009546  97.5025  20.2916 15.22515306 69278
0 XW-2E
1 40909U 15049L   23105.88943583  .00035182  00000-0  10457-2 0  9998
2 40909  97.4587 118.9484 0008611   1.7921 117.5982 15.34642016419576
0 OBJECT C
1 54684U 22167C   23105.87784341  .00015974  00000-0  91984-3 0  9998
2 54684  97.5512 243.9854 0014540 186.4360 295.6810 15.12415362 19253
0 XW-3 (CAS 9)
1 50466U 21131B   23105.86316364  .00001084  00000-0  36687-3 0  9993
2 50466  98.5525 187.6051 0003530 340.9841  19.1214 14.38826579 68392
0 OSCAR 7
1  7530U 74089B   23105.86305444 -.00000021  00000-0  15615-3 0  9993
2  7530 101.9448  92.1270 0012168 181.2440 240.4822 12.53663310215609
0 ZHUHAI-1 01
1 42761U 17034D   23105.86153649  .00010171  00000-0  52638-3 0  9995
2 42761  43.0156 100.4236 0009907  55.9318  15.1631 15.16288176322181
0 XW-2F
1 40910U 15049M   23105.86127640  .00034798  00000-0  10542-2 0  9993
2 40910  97.4676 118.1394 0009444   3.2703 114.4060 15.34034394419329
0 TEVEL 4
1 51063U 22002CH  23105.83867801  .00023363  00000-0  10090-2 0  9992
2 51063  97.4399 173.3394 0009643  96.7061 355.1729 15.22460562 69267
0 TEVEL 7
1 51062U 22002CG  23105.83470741  .00023484  00000-0  10129-2 0  9991
2 51062  97.4395 173.3485 0009633  97.5613 355.4123 15.22502021 69262
0 XW-2D
1 40907U 15049J   23105.83307007  .00019377  00000-0  74408-3 0  9991
2 40907  97.4952 113.2054 0012030  26.5761  95.9214 15.26428944418960
0 TEVEL 3
1 50988U 22002E   23105.81719809  .00023438  00000-0  10095-2 0  9997
2 50988  97.4383 173.3026 0009764  99.1725 355.1213 15.22550124 69267
0 LAPAN A2
1 40931U 15052B   23105.70654801  .00001466  00000-0  11349-3 0  9990
2 40931   5.9972 172.6011 0012522 128.7444 231.3771 14.77155779408101
0 CSS (TIANHE-1)
1 48274U 21035A   23105.59077618  .00046747  00000-0  46895-3 0  9993
2 48274  41.4723 177.3571 0002827 341.2898 175.1965 15.64679680112047
0 JAS 2
1 24278U 96046B   23105.56118171  .00000008  00000-0  45075-4 0  9992
2 24278  98.5250  92.6642 0349605 219.2298 138.3028 13.53141299316466
0 TEVEL 2
1 51069U 22002CP  23105.55836676  .00023194  00000-0  99946-3 0  9993
2 51069  97.4380 173.0205 0009524  98.9687   7.3345 15.22537546 69220
0 XW-2B
1 40911U 15049N   23105.55691034  .00018809  00000-0  72701-3 0  9994
2 40911  97.4938 113.4034 0011870  28.9708  86.6423 15.26219734418804
0 LILACSAT 2
1 40908U 15049K   23105.54701314  .00008293  00000-0  39938-3 0  9993
2 40908  97.5270 108.8141 0015760  53.5394  63.7864 15.18898773418288
0 ISS (ZARYA)
1 25544U 98067A   23105.53714519  .00016304  00000-0  29473-3 0  9998
2 25544  51.6389 279.0039 0006236 195.4935 241.9737 15.49824404392072
0 ES'HAIL 2
1 43700U 18090A   23105.49887021  .00000131  00000-0  00000+0 0  9996
2 43700   0.0184 127.0353 0001302 285.8215 355.9133  1.00272445 16301
0 SAUDISAT 1C
1 27607U 02058C   23105.47662820  .00002442  00000-0  34929-3 0  9995
2 27607  64.5540  97.1597 0074215 237.2557 122.1379 14.77102570 92961
0 DIWATA 2B
1 43678U 18084H   23105.47110357  .00002088  00000-0  20556-3 0  9997
2 43678  98.0109 248.2208 0009884  16.1706 343.9842 14.93181032242905
0 TEVEL 6
1 50999U 22002R   23105.46947003  .00023910  00000-0  10080-2 0  9998
2 50999  97.4376 173.2698 0010912  95.6968  30.3124 15.23260666 69232
0 ZHUHAI-1 02
1 42759U 17034B   23105.45980740  .00009146  00000-0  47557-3 0  9991
2 42759  43.0159 104.0969 0009763  49.7862  81.2468 15.16219053322112
0 FUNCUBE 1
1 39444U 13066AE  23105.45392630  .00008074  00000-0  90393-3 0  9999
2 39444  97.6660  71.8612 0055454 118.6173 242.0636 14.85999005506324
0 TEVEL 8
1 50989U 22002F   23105.44346517  .00023206  00000-0  10019-2 0  9998
2 50989  97.4402 172.9848 0009647  99.5578  19.1715 15.22470183 69201
0 AO-95
1 43770U 18099N   23105.43298461  .00007928  00000-0  65547-3 0  9992
2 43770  97.5768 168.6711 0012323 342.0724  18.0063 14.99130333238207
0 NAYIF 1
1 42017U 17008BX  23105.41668131  .00136407  00000-0  16326-2 0  9992
2 42017  97.2190 174.8484 0004343 216.5294 143.5668 15.60507566343625
0 XW-2A
1 40903U 15049E   23105.39796309  .00890967  44510-3  10456-2 0  9996
2 40903  97.1050 173.8668 0004018 230.1593 262.9512 16.08774670426505
0 BREEZE-KM R/B
1 44909U 19096E   23105.28609450  .00000012  00000-0  95080-5 0  9996
2 44909  82.5262  29.7374 0217082 334.3526  24.6931 12.79720024154112
0 AO-91
1 43017U 17073E   23105.27953456  .00009411  00000-0  67043-3 0  9993
2 43017  97.6389 352.1127 0234562 276.9440  80.5148 14.85234304291848
0 AO-92
1 43137U 18004AC  23105.20166853  .00044029  00000-0  10433-2 0  9995
2 43137  97.3321 183.9066 0005166  18.8900 341.2538 15.41614335292598
0 EYESAT A
1 22825U 93061C   23105.17838389  .00000217  00000-0  10139-3 0  9993
2 22825  98.8487 147.0314 0007426 249.0477 110.9911 14.30282052541286
0 JY1SAT
1 43803U 18099AX  23105.16226950  .00008191  00000-0  66128-3 0  9992
2 43803  97.5746 169.3814 0012718 325.4971  34.5426 15.00037386238246
0 NEXUS
1 43937U 19003F   23105.14155637  .00058149  00000-0  11733-2 0  9996
2 43937  97.0968 133.3967 0016825 142.3136 217.9296 15.46180082236283
0 UVSQ-SAT
1 47438U 21006AB  23105.10689797  .00021524  00000-0  93296-3 0  9999
2 47438  97.3919 163.1892 0008608 305.8612  54.1824 15.22361505123047
0 MT-CUBE-2
1 53106U 22080B   23102.68218782 -.00000003  00000-0  00000-0 0  9991
2 53106  70.1748 342.4876 0008257 200.3328 159.7004  6.42557159 17545
0 XW-4 (CAS-10)
1 54816U 21035C   23072.25043904  .02330371  77621-5  12756-2 0  9996
2 54816  41.5077   9.4914 0017840 162.4710 197.7314 16.18206266 13316
